stk.v.11.0
# WrittenBy COMET v0.1.1
BEGIN Ephemeris
NumberOfEphemerisPoints 2436
ScenarioEpoch 31 Dec 1949 23:59:32.000000000
CentralBody Sun
CoordinateSystem ICRF
EphemerisTimePosVel
+1.85068796374827e9 -4.56666962099081e10 -4.56150221158352e10 -1.96312023299544e10 +2.59597931132305e4 -2.62525964274120e4 -1.67151990940306e4
+1.85198396374850e9 -9.22300333112155e8 -6.12713121600043e10 -3.26338905659307e10 +3.89390211064805e4 +3.05923109403638e3 -2.40338986520035e3
+1.85327996374865e9 +4.37542747924719e10 -3.71191612710193e10 -2.43649115166602e10 +2.47859629606404e4 +3.34364669570300e4 +1.52908587941212e4
+1.85457596374868e9 +4.69470705531046e10 +1.66852992908730e10 +4.04497134122694e9 -2.59704878011633e4 +4.15296776275058e4 +2.48769210609395e4
+1.85587196374860e9 -1.65398794380023e10 +3.83747746251068e10 +2.22138052395640e10 -5.53866922184429e4 -1.55727180411436e4 -2.57556887287453e3
+1.85716796374841e9 -5.85607850754446e10 -6.12951713806969e9 +2.79785665513974e9 -6.39243781421705e3 -4.13622233244417e4 -2.14318069722254e4
+1.85846396374814e9 -4.08213001664198e10 -4.99124258510427e10 -2.24292249697863e10 +2.91843614419381e4 -2.26930227129261e4 -1.51481126337710e4
+1.85975996374778e9 +5.90244528010363e9 -6.03595661691523e10 -3.28545342834720e10 +3.87631637863291e4 +7.33498332919269e3 -1.01133444476746e2
+1.86105596374737e9 +4.77133339454364e10 -3.09482022616542e10 -2.14790431224195e10 +2.02128880116415e4 +3.68339136545192e4 +1.75798910353184e4
+1.86235196274693e9 +4.16268036423806e10 +2.36514062587984e10 +8.31776814168158e9 -3.46130711050229e4 +3.75809111277370e4 +2.36637251781291e4
+1.86364796274650e9 -2.58882497759229e10 +3.49372436246910e10 +2.13468783040299e10 -5.08760228329422e4 -2.33910655644420e4 -7.21967695001698e3
+1.86494396274610e9 -5.91118362635204e10 -1.33055140609028e10 -9.78287428768150e8 +3.39920988078094e1 -4.03060921998691e4 -2.15340135154404e4
+1.86623996274577e9 -3.54513421299530e10 -5.35692056573932e10 -2.49394335865664e10 +3.19391995040446e4 -1.89573255744184e4 -1.34382271717004e4
+1.86753596274551e9 +1.26536704423345e10 -5.86962014597140e10 -3.26660431746601e10 +3.80944449810374e4 +1.16191756152764e4 +2.25674678306641e3
+1.86883196274537e9 +5.08042207539112e10 -2.42154518856261e10 -1.82030354043083e10 +1.48832557982222e4 +3.98120764256899e4 +1.97233992276711e4
+1.87012796274533e9 +3.48318225004105e10 +2.97755819052819e10 +1.22937489925986e10 -4.26843569430991e4 +3.19269431522919e4 +2.14803961057959e4
+1.87142396274540e9 -3.43130077967766e10 +3.02467787033486e10 +1.97148903360932e10 -4.49481633537009e4 -2.98279855916249e4 -1.12728088155471e4
+1.87271996274557e9 -5.85778512890380e10 -2.02382419669256e10 -4.73698760729239e9 +5.96916373182118e3 -3.86190284226536e4 -2.12482448705292e4
+1.87401596274584e9 -2.96387554326761e10 -5.65570462808816e10 -2.71381962132657e10 +3.42337778994539e4 -1.50771506382642e4 -1.16034343711753e4
+1.87531196274618e9 +1.92424247047118e10 -5.62824755770361e10 -3.20598528517672e10 +3.69094980046038e4 +1.58856689960787e4 +4.65872285767361e3
+1.87660796274658e9 +5.28920617454316e10 -1.70081007450623e10 -1.45694397775827e10 +8.77521117507941e3 +4.22329199442005e4 +2.16499322024488e4
+1.87790396274699e9 +2.67161259254958e10 +3.47616840206523e10 +1.57987796091198e10 -4.96025128033350e4 +2.46579938185094e4 +1.83147525958470e4
+1.87919996274741e9 -4.16071053666448e10 +2.45587885849018e10 +1.74327505621421e10 -3.81049452304567e4 -3.47830690474462e4 -1.46293551410134e4
+1.88049596274781e9 -5.70473727067729e10 -2.68259624731774e10 -8.41481714953055e9 +1.13904134326283e4 -3.64166458964084e4 -2.06339137331267e4
+1.88179196274815e9 -2.34646985850722e10 -5.88525537303926e10 -2.90046791238140e10 +3.60742472464035e4 -1.10792126508893e4 -9.65861427438134e3
+1.88308796274841e9 +2.55745256185684e10 -5.31242635849255e10 -3.10294004685652e10 +3.51796561422570e4 +2.01036302974644e4 +7.09127583838550e3
+1.88438396274859e9 +5.38389756482449e10 -9.43754415718334e9 -1.06235913986294e10 +1.89150749809915e3 +4.39306926371691e4 +2.32706155618422e4
+1.88567996274867e9 +1.75290175578257e10 +3.83503078847412e10 +1.86683418438796e10 -5.47956568557648e4 +1.60649316736576e4 +1.42629826764974e4
+1.88697596274863e9 -4.76542723994772e10 +1.81278181528140e10 +1.46244700212191e10 -3.07835032114231e4 -3.82966106531384e4 -1.72653814472239e4
+1.88827196274849e9 -5.46112604826260e10 -3.29902560923005e10 -1.19602922810373e10 +1.62957283907206e4 -3.37921120234021e4 -1.97405880722911e4
+1.88956796274824e9 -1.70074877482370e10 -6.04383205615559e10 -3.05213545599895e10 +3.74636089133591e4 -6.98450873595749e3 -7.61536625921527e3
+1.89086396274791e9 +3.15524533913073e10 -4.92331123532852e10 -2.95707058461161e10 +3.28707290619939e4 +2.42358080922912e4 +9.53803055008487e3
+1.89215996274752e9 +5.35125462771053e10 -1.64667095230240e9 -6.42803011372954e9 -5.72201265777655e3 +4.47082104924735e4 +2.44753975568915e4
+1.89345596274709e9 +7.61534825654093e9 +4.03495599836183e10 +2.07642302983481e10 -5.78070304215260e4 +6.63656700197314e3 +9.53878952906713e3
+1.89475196274666e9 -5.24022516788580e10 +1.11969241503837e10 +1.14144317282310e10 -2.33337042009329e4 -4.04899046137145e4 -1.92094604846704e4
+1.89604796274625e9 -5.13589452513833e10 -3.86638989038340e10 -1.53282795310527e10 +2.06911591990508e4 -3.08227539551353e4 -1.86101760388056e4
+1.89734396274589e9 -1.03450354022777e10 -6.12988123089203e10 -3.16718442620728e10 +3.84008211893404e4 -2.81286337833451e3 -5.48413035649103e3
+1.89863996274561e9 +3.70726866769292e10 -4.46270053479261e10 -2.76826047020320e10 +2.99435881601390e4 +2.82346355152297e4 +1.19776409440632e4
+1.89993596274542e9 +5.17937240658185e10 +6.18533474001859e9 -2.06611213127619e9 -1.39529458745447e4 +4.43436953061676e4 +2.51341246622767e4
+1.90123196274534e9 -2.61743616649046e9 +4.06663980350507e10 +2.19944829878317e10 -5.84057796030040e4 -3.00873219982185e3 +4.44854691249517e3
+1.90252796274537e9 -5.58514482450543e10 +3.98555527893016e9 +7.91989507400829e9 -1.60129305706989e4 -4.15245830236758e4 -2.05212403614020e4
+1.90382396274550e9 -4.73795929735923e10 -4.37907882364593e10 -1.84795826121014e10 +2.45868638426345e4 -2.75720038721739e4 -1.72776303580562e4
+1.90511996274573e9 -3.55842573607720e9 -6.14220933669522e10 -3.24413977831403e10 +3.88795679451269e4 +1.41561338423335e3 -3.27499886720299e3
+1.90641596274605e9 +4.20219382590261e10 -3.93358625960677e10 -2.53693628040681e10 +2.63565629997342e4 +3.20373261748547e4 +1.43808971383596e4
+1.90771196274642e9 +4.85916284258285e10 +1.38354770952995e10 +2.35245136954339e9 -2.25915572221386e4 +4.26094848969776e4 +2.51034510596254e4
+1.90900796274684e9 -1.27434659709562e10 +3.93185597871619e10 +2.23244235810078e10 -5.66419568741412e4 -1.22374954262115e4 -6.64155272981217e2
+1.91030396274725e9 -5.80401015814019e10 -3.31769028456057e9 +4.24557559259059e9 -8.99629229606636e3 -4.15725684138323e4 -2.12744106405240e4
+1.91159996274766e9 -4.27594725329066e10 -4.83261795766690e10 -2.13813533462473e10 +2.79957173313419e4 -2.40906979695597e4 -1.57714354522017e4
+1.91289596274802e9 +3.27130256724366e9 -6.07999699277743e10 -3.28172066836607e10 +3.88890140030687e4 +5.68151892318103e3 -9.97174209271898e2
+1.91419196274832e9 +4.62810103508941e10 -3.34010779894993e10 -2.26406423473130e10 +2.20668522317762e4 +3.55649100641071e4 +1.67100959771279e4
+1.91548796274853e9 +4.38627733071979e10 +2.10446688656989e10 +6.69386678041359e9 -3.13117502063774e4 +3.93064246946816e4 +2.42431304973975e4
+1.91678396274864e9 -2.23696221542553e10 +3.64290777183453e10 +2.17789792099775e10 -5.28146420189318e4 -2.05209195584462e4 -5.48594728227770e3
+1.91807996274864e9 -5.90320345052868e10 -1.05524330897929e10 +4.83638200046031e8 -2.39432831366834e3 -4.07965150872998e4 -2.15444140931676e4
+1.91937596274854e9 -3.75837733404361e10 -5.22325502730080e10 -2.40048176830279e10 +3.09299066446850e4 -2.04206515348062e4 -1.41151579172302e4
+1.92067196274833e9 +1.00593113344550e10 -5.94276209822202e10 -3.27879901999776e10 +3.84131531319172e4 +9.96370426009219e3 +1.33966965950722e3
+1.92196796274803e9 +4.97219561666545e10 -2.68789529595800e10 -1.95134402085415e10 +1.70347258289862e4 +3.87184003882750e4 +1.89163964786171e4
+1.92326396274766e9 +3.76273611373731e10 +2.75272904423379e10 +1.08032599796046e10 -3.96666359427811e4 +3.43131977412357e4 +2.24421152744621e4
+1.92455996274725e9 -3.11785367237653e10 +3.21946160939963e10 +2.04303488507605e10 -4.73762704912349e4 -2.75115604081928e4 -9.78408430276751e3
+1.92585596274681e9 -5.89073110336612e10 -1.75914966336030e10 -3.28944283357082e9 +3.73354630961846e3 -3.93389213198095e4 -2.14011712156075e4
+1.92715196274639e9 -3.19338377477648e10 -5.54817213225848e10 -2.63262981574634e10 +3.34007859961573e4 -1.65934559340352e4 -1.23269359262470e4
+1.92844796274601e9 +1.67199716846654e10 -5.73040893818631e10 -3.23442644252570e10 +3.74307954396241e4 +1.42397027469372e4 +3.72569328980802e3
+1.92974396274571e9 +5.22125405148914e10 -1.98443933929649e10 -1.60139482830688e10 +1.12296241341483e4 +4.13728670888286e4 +2.09362711523886e4
+1.93103996274548e9 +2.99966774251542e10 +3.29865587297069e10 +1.45106805376757e10 -4.71022801364863e4 +2.76459309021006e4 +1.96515410394539e4
+1.93233596274536e9 -3.89301088828632e10 +2.68600831548745e10 +1.83844551088943e10 -4.08295740818787e4 -3.30423467310334e4 -1.34173143019505e4
+1.93363196274535e9 -5.77517379881239e10 -2.43246004654994e10 -7.00595784829078e9 +9.35540092618001e3 -3.73228952797527e4 -2.09071495293363e4
+1.93492796274545e9 -2.58902407933045e10 -5.80479308853052e10 -2.83237555708730e10 +3.54160635658347e4 -1.26377854675353e4 -1.04228502772386e4
+1.93622396274564e9 +2.31621886017760e10 -5.44329620965988e10 -3.14785349884313e10 +3.59151997762751e4 +1.84806092625569e4 +6.14824771614379e3
+1.93751996274593e9 +5.36160712586181e10 -1.23990505411811e10 -1.21823251820385e10 +4.64284309075344e3 +4.33724213214015e4 +2.26873434277402e4
END Ephemeris